CCSDS_OMM_VERS = 2.0
CREATION_DATE  = 
ORIGINATOR     = 

OBJECT_NAME    = 2025-313BE
OBJECT_ID      = 2025-313BE
CENTER_NAME    = EARTH
REF_FRAME      = TEME
TIME_SYSTEM    = UTC
MEAN_ELEMENT_THEORY = SGP/SGP4

EPOCH          = 2026-02-12T00:29:34.545408
MEAN_MOTION    = 15.25851037
ECCENTRICITY   = .0008538
INCLINATION    = 97.4064
RA_OF_ASC_NODE = 119.8615
ARG_OF_PERICENTER = 78.5396
MEAN_ANOMALY   = 281.6801

EPHEMERIS_TYPE = 0
CLASSIFICATION_TYPE = U
NORAD_CAT_ID   = 67482
ELEMENT_SET_NO = 999
REV_AT_EPOCH   = 405
BSTAR          = .26598E-2
MEAN_MOTION_DOT = .68639E-3
MEAN_MOTION_DDOT = 0

CCSDS_OMM_VERS = 2.0
CREATION_DATE  = 
ORIGINATOR     = 

OBJECT_NAME    = ION SCV-021
OBJECT_ID      = 2025-276DT
CENTER_NAME    = EARTH
REF_FRAME      = TEME
TIME_SYSTEM    = UTC
MEAN_ELEMENT_THEORY = SGP/SGP4

EPOCH          = 2026-02-03T04:28:31.154016
MEAN_MOTION    = 14.97059561
ECCENTRICITY   = .00113647
INCLINATION    = 97.5347
RA_OF_ASC_NODE = 109.4970
ARG_OF_PERICENTER = 207.9438
MEAN_ANOMALY   = 152.1175

EPHEMERIS_TYPE = 0
CLASSIFICATION_TYPE = U
NORAD_CAT_ID   = 67483
ELEMENT_SET_NO = 999
REV_AT_EPOCH   = 255
BSTAR          = -.1218394E-1
MEAN_MOTION_DOT = -.13788E-2
MEAN_MOTION_DDOT = 0

CCSDS_OMM_VERS = 2.0
CREATION_DATE  = 
ORIGINATOR     = 

OBJECT_NAME    = STARLINK-36551
OBJECT_ID      = 2026-012A
CENTER_NAME    = EARTH
REF_FRAME      = TEME
TIME_SYSTEM    = UTC
MEAN_ELEMENT_THEORY = SGP/SGP4

EPOCH          = 2026-02-12T04:00:03.000096
MEAN_MOTION    = 15.46601058
ECCENTRICITY   = .0000894
INCLINATION    = 42.9998
RA_OF_ASC_NODE = 99.2943
ARG_OF_PERICENTER = 281.9345
MEAN_ANOMALY   = 300.7236

EPHEMERIS_TYPE = 0
CLASSIFICATION_TYPE = U
NORAD_CAT_ID   = 67493
ELEMENT_SET_NO = 999
REV_AT_EPOCH   = 496
BSTAR          = -.4141E-1
MEAN_MOTION_DOT = -.1896394E-1
MEAN_MOTION_DDOT = 0

CCSDS_OMM_VERS = 2.0
CREATION_DATE  = 
ORIGINATOR     = 

OBJECT_NAME    = STARLINK-36396
OBJECT_ID      = 2026-012B
CENTER_NAME    = EARTH
REF_FRAME      = TEME
TIME_SYSTEM    = UTC
MEAN_ELEMENT_THEORY = SGP/SGP4

EPOCH          = 2026-02-11T05:14:28.812192
MEAN_MOTION    = 15.50631065
ECCENTRICITY   = .00006016
INCLINATION    = 43.0000
RA_OF_ASC_NODE = 105.6350
ARG_OF_PERICENTER = 329.3100
MEAN_ANOMALY   = 30.7725

EPHEMERIS_TYPE = 0
CLASSIFICATION_TYPE = U
NORAD_CAT_ID   = 67494
ELEMENT_SET_NO = 999
REV_AT_EPOCH   = 369
BSTAR          = .16589448E-2
MEAN_MOTION_DOT = .98394E-3
MEAN_MOTION_DDOT = 0

CCSDS_OMM_VERS = 2.0
CREATION_DATE  = 
ORIGINATOR     = 

OBJECT_NAME    = STARLINK-36550
OBJECT_ID      = 2026-012C
CENTER_NAME    = EARTH
REF_FRAME      = TEME
TIME_SYSTEM    = UTC
MEAN_ELEMENT_THEORY = SGP/SGP4

EPOCH          = 2026-02-12T04:00:03.000096
MEAN_MOTION    = 15.50572523
ECCENTRICITY   = .0001399
INCLINATION    = 43.0007
RA_OF_ASC_NODE = 99.5840
ARG_OF_PERICENTER = 260.4889
MEAN_ANOMALY   = 204.1567

EPHEMERIS_TYPE = 0
CLASSIFICATION_TYPE = U
NORAD_CAT_ID   = 67495
ELEMENT_SET_NO = 999
REV_AT_EPOCH   = 496
BSTAR          = -.46702E-3
MEAN_MOTION_DOT = -.27636E-3
MEAN_MOTION_DDOT = 0

CCSDS_OMM_VERS = 2.0
CREATION_DATE  = 
ORIGINATOR     = 

OBJECT_NAME    = STARLINK-36534
OBJECT_ID      = 2026-012D
CENTER_NAME    = EARTH
REF_FRAME      = TEME
TIME_SYSTEM    = UTC
MEAN_ELEMENT_THEORY = SGP/SGP4

EPOCH          = 2026-02-12T04:00:03.000096
MEAN_MOTION    = 15.50889179
ECCENTRICITY   = .0001059
INCLINATION    = 43.0004
RA_OF_ASC_NODE = 99.2966
ARG_OF_PERICENTER = 259.1201
MEAN_ANOMALY   = 321.8289

EPHEMERIS_TYPE = 0
CLASSIFICATION_TYPE = U
NORAD_CAT_ID   = 67496
ELEMENT_SET_NO = 999
REV_AT_EPOCH   = 491
BSTAR          = -.33964E-1
MEAN_MOTION_DOT = -.1788566E-1
MEAN_MOTION_DDOT = 0

CCSDS_OMM_VERS = 2.0
CREATION_DATE  = 
ORIGINATOR     = 

OBJECT_NAME    = STARLINK-36555
OBJECT_ID      = 2026-012E
CENTER_NAME    = EARTH
REF_FRAME      = TEME
TIME_SYSTEM    = UTC
MEAN_ELEMENT_THEORY = SGP/SGP4

EPOCH          = 2026-02-12T04:00:03.000096
MEAN_MOTION    = 15.50603997
ECCENTRICITY   = .000046
INCLINATION    = 43.0000
RA_OF_ASC_NODE = 99.3136
ARG_OF_PERICENTER = 276.3331
MEAN_ANOMALY   = 297.6859

EPHEMERIS_TYPE = 0
CLASSIFICATION_TYPE = U
NORAD_CAT_ID   = 67497
ELEMENT_SET_NO = 999
REV_AT_EPOCH   = 496
BSTAR          = -.36591E-1
MEAN_MOTION_DOT = -.1927104E-1
MEAN_MOTION_DDOT = 0

CCSDS_OMM_VERS = 2.0
CREATION_DATE  = 
ORIGINATOR     = 

OBJECT_NAME    = STARLINK-36081
OBJECT_ID      = 2026-012F
CENTER_NAME    = EARTH
REF_FRAME      = TEME
TIME_SYSTEM    = UTC
MEAN_ELEMENT_THEORY = SGP/SGP4

EPOCH          = 2026-02-12T04:00:03.000096
MEAN_MOTION    = 15.50575192
ECCENTRICITY   = .00015
INCLINATION    = 43.0007
RA_OF_ASC_NODE = 99.5793
ARG_OF_PERICENTER = 256.8250
MEAN_ANOMALY   = 209.3934

EPHEMERIS_TYPE = 0
CLASSIFICATION_TYPE = U
NORAD_CAT_ID   = 67498
ELEMENT_SET_NO = 999
REV_AT_EPOCH   = 491
BSTAR          = -.54015E-3
MEAN_MOTION_DOT = -.31896E-3
MEAN_MOTION_DDOT = 0

CCSDS_OMM_VERS = 2.0
CREATION_DATE  = 
ORIGINATOR     = 

OBJECT_NAME    = STARLINK-36558
OBJECT_ID      = 2026-012G
CENTER_NAME    = EARTH
REF_FRAME      = TEME
TIME_SYSTEM    = UTC
MEAN_ELEMENT_THEORY = SGP/SGP4

EPOCH          = 2026-02-12T04:00:03.000096
MEAN_MOTION    = 15.50572093
ECCENTRICITY   = .0001667
INCLINATION    = 43.0008
RA_OF_ASC_NODE = 99.5730
ARG_OF_PERICENTER = 264.1183
MEAN_ANOMALY   = 204.5868

EPHEMERIS_TYPE = 0
CLASSIFICATION_TYPE = U
NORAD_CAT_ID   = 67499
ELEMENT_SET_NO = 999
REV_AT_EPOCH   = 496
BSTAR          = -.39659E-3
MEAN_MOTION_DOT = -.23532E-3
MEAN_MOTION_DDOT = 0

CCSDS_OMM_VERS = 2.0
CREATION_DATE  = 
ORIGINATOR     = 

OBJECT_NAME    = STARLINK-36557
OBJECT_ID      = 2026-012H
CENTER_NAME    = EARTH
REF_FRAME      = TEME
TIME_SYSTEM    = UTC
MEAN_ELEMENT_THEORY = SGP/SGP4

EPOCH          = 2026-02-12T04:00:03.000096
MEAN_MOTION    = 15.49009790
ECCENTRICITY   = .0000965
INCLINATION    = 43.0000
RA_OF_ASC_NODE = 99.0465
ARG_OF_PERICENTER = 259.1590
MEAN_ANOMALY   = 63.1177

EPHEMERIS_TYPE = 0
CLASSIFICATION_TYPE = U
NORAD_CAT_ID   = 67500
ELEMENT_SET_NO = 999
REV_AT_EPOCH   = 496
BSTAR          = -.39122E-1
MEAN_MOTION_DOT = -.1944619E-1
MEAN_MOTION_DDOT = 0

CCSDS_OMM_VERS = 2.0
CREATION_DATE  = 
ORIGINATOR     = 

OBJECT_NAME    = STARLINK-36433
OBJECT_ID      = 2026-012J
CENTER_NAME    = EARTH
REF_FRAME      = TEME
TIME_SYSTEM    = UTC
MEAN_ELEMENT_THEORY = SGP/SGP4

EPOCH          = 2026-02-12T04:00:03.000096
MEAN_MOTION    = 15.49363310
ECCENTRICITY   = .0001242
INCLINATION    = 42.9996
RA_OF_ASC_NODE = 99.0104
ARG_OF_PERICENTER = 266.1315
MEAN_ANOMALY   = 70.5831

EPHEMERIS_TYPE = 0
CLASSIFICATION_TYPE = U
NORAD_CAT_ID   = 67501
ELEMENT_SET_NO = 999
REV_AT_EPOCH   = 496
BSTAR          = -.37701E-1
MEAN_MOTION_DOT = -.190257E-1
MEAN_MOTION_DDOT = 0

CCSDS_OMM_VERS = 2.0
CREATION_DATE  = 
ORIGINATOR     = 

OBJECT_NAME    = STARLINK-36554
OBJECT_ID      = 2026-012K
CENTER_NAME    = EARTH
REF_FRAME      = TEME
TIME_SYSTEM    = UTC
MEAN_ELEMENT_THEORY = SGP/SGP4

EPOCH          = 2026-02-12T04:00:03.000096
MEAN_MOTION    = 15.50617874
ECCENTRICITY   = .0001212
INCLINATION    = 43.0000
RA_OF_ASC_NODE = 99.3162
ARG_OF_PERICENTER = 267.4815
MEAN_ANOMALY   = 305.3746

EPHEMERIS_TYPE = 0
CLASSIFICATION_TYPE = U
NORAD_CAT_ID   = 67502
ELEMENT_SET_NO = 999
REV_AT_EPOCH   = 491
BSTAR          = -.15251E-2
MEAN_MOTION_DOT = -.88924E-3
MEAN_MOTION_DDOT = 0

