2025-313BE              
1 67482U 25313BE  26043.02053872  .00068639  00000+0  26598-2 0  9996
2 67482  97.4064 119.8615 0008538  78.5396 281.6801 15.25851037  4054
ION SCV-021             
1 67483U 25276DT  26034.18647169 -.00137880  00000+0 -12184-1 0  9992
2 67483  97.5347 109.4970 0011364 207.9438 152.1175 14.97059561  2554
STARLINK-36551          
1 67493U 26012A   26043.16670139 -.01896394  00000+0 -41410-1 0  9990
2 67493  42.9998  99.2943 0000894 281.9345 300.7236 15.46601058  4967
STARLINK-36396          
1 67494U 26012B   26042.21838903  .00098394  00000+0  16589-2 0  9992
2 67494  43.0000 105.6350 0000601 329.3100  30.7725 15.50631065  3698
STARLINK-36550          
1 67495U 26012C   26043.16670139 -.00027636  00000+0 -46702-3 0  9997
2 67495  43.0007  99.5840 0001399 260.4889 204.1567 15.50572523  4960
STARLINK-36534          
1 67496U 26012D   26043.16670139 -.01788566  00000+0 -33964-1 0  9999
2 67496  43.0004  99.2966 0001059 259.1201 321.8289 15.50889179  4911
STARLINK-36555          
1 67497U 26012E   26043.16670139 -.01927104  00000+0 -36591-1 0  9992
2 67497  43.0000  99.3136 0000460 276.3331 297.6859 15.50603997  4968
STARLINK-36081          
1 67498U 26012F   26043.16670139 -.00031896  00000+0 -54015-3 0  9999
2 67498  43.0007  99.5793 0001500 256.8250 209.3934 15.50575192  4910
STARLINK-36558          
1 67499U 26012G   26043.16670139 -.00023532  00000+0 -39659-3 0  9995
2 67499  43.0008  99.5730 0001667 264.1183 204.5868 15.50572093  4969
STARLINK-36557          
1 67500U 26012H   26043.16670139 -.01944619  00000+0 -39122-1 0  9990
2 67500  43.0000  99.0465 0000965 259.1590  63.1177 15.49009790  4969
STARLINK-36433          
1 67501U 26012J   26043.16670139 -.01902570  00000+0 -37701-1 0  9992
2 67501  42.9996  99.0104 0001242 266.1315  70.5831 15.49363310  4964
STARLINK-36554          
1 67502U 26012K   26043.16670139 -.00088924  00000+0 -15251-2 0  9997
2 67502  43.0000  99.3162 0001212 267.4815 305.3746 15.50617874  4914
